{
    "links": {
        "self": "http://www.neowsapp.com/rest/v1/neo/3753576?api_key=iIulBulltgU6a56xZRHN4H3l9WmuAYTsLGpBGhQ2"
    },
    "id": "3753576",
    "neo_reference_id": "3753576",
    "name": "(2016 HY23)",
    "designation": "2016 HY23",
    "nasa_jpl_url": "http://ssd.jpl.nasa.gov/sbdb.cgi?sstr=3753576",
    "absolute_magnitude_h": 26.914,
    "estimated_diameter": {
        "kilometers": {
            "estimated_diameter_min": 0.0110091801,
            "estimated_diameter_max": 0.0246172751
        },
        "meters": {
            "estimated_diameter_min": 11.0091801043,
            "estimated_diameter_max": 24.6172750897
        },
        "miles": {
            "estimated_diameter_min": 0.0068407853,
            "estimated_diameter_max": 0.0152964608
        },
        "feet": {
            "estimated_diameter_min": 36.1193584534,
            "estimated_diameter_max": 80.7653408054
        }
    },
    "is_potentially_hazardous_asteroid": false,
    "close_approach_data": [
        {
            "close_approach_date": "2016-04-28",
            "close_approach_date_full": "2016-Apr-28 00:53",
            "epoch_date_close_approach": 1461804780000,
            "relative_velocity": {
                "kilometers_per_second": "7.299709309",
                "kilometers_per_hour": "26278.953512376",
                "miles_per_hour": "16328.7197532872"
            },
            "miss_distance": {
                "astronomical": "0.0168188912",
                "lunar": "6.5425486768",
                "kilometers": "2516070.299281744",
                "miles": "1563413.5875223072"
            },
            "orbiting_body": "Earth"
        }
    ],
    "orbital_data": {
        "orbit_id": "3",
        "orbit_determination_date": "2017-04-06 08:26:15",
        "first_observation_date": "2016-04-30",
        "last_observation_date": "2016-05-01",
        "data_arc_in_days": 1,
        "observations_used": 14,
        "orbit_uncertainty": "8",
        "minimum_orbit_intersection": ".0163963",
        "jupiter_tisserand_invariant": "3.497",
        "epoch_osculation": "2457509.5",
        "eccentricity": ".5292164951727358",
        "semi_major_axis": "2.163321418772536",
        "inclination": "3.883748001768898",
        "ascending_node_longitude": "41.54341664214706",
        "orbital_period": "1162.197674669076",
        "perihelion_distance": "1.018456039597624",
        "perihelion_argument": "167.1815682111126",
        "aphelion_distance": "3.308186797947448",
        "perihelion_time": "2457498.849539353750",
        "mean_anomaly": "3.299065138589043",
        "mean_motion": ".3097579765012921",
        "equinox": "J2000",
        "orbit_class": {
            "orbit_class_type": "AMO",
            "orbit_class_description": "Near-Earth asteroid orbits similar to that of 1221 Amor",
            "orbit_class_range": "1.017 AU < q (perihelion) < 1.3 AU"
        }
    },
    "is_sentry_object": false
}